[{"OBJECT_NAME":"ONEWEB-0602","OBJECT_ID":"2022-166AA","EPOCH":"2025-09-21T03:00:07.838208","MEAN_MOTION":13.2182425,"ECCENTRICITY":0.00016281,"INCLINATION":87.9196,"RA_OF_ASC_NODE":297.6988,"ARG_OF_PERICENTER":85.3485,"MEAN_ANOMALY":274.7835,"EPHEMERIS_TYPE":0,"CLASSIFICATION_TYPE":"U","NORAD_CAT_ID":54666,"ELEMENT_SET_NO":999,"REV_AT_EPOCH":13600,"BSTAR":0.00030321808,"MEAN_MOTION_DOT":1.38e-6,"MEAN_MOTION_DDOT":0},{"OBJECT_NAME":"ONEWEB-0603","OBJECT_ID":"2022-166AB","EPOCH":"2025-09-21T03:08:05.177472","MEAN_MOTION":13.2182561,"ECCENTRICITY":0.00019054,"INCLINATION":87.9199,"RA_OF_ASC_NODE":297.6317,"ARG_OF_PERICENTER":90.8097,"MEAN_ANOMALY":269.3256,"EPHEMERIS_TYPE":0,"CLASSIFICATION_TYPE":"U","NORAD_CAT_ID":54667,"ELEMENT_SET_NO":999,"REV_AT_EPOCH":13593,"BSTAR":0.00015697627,"MEAN_MOTION_DOT":7.8e-7,"MEAN_MOTION_DDOT":0},{"OBJECT_NAME":"ONEWEB-0604","OBJECT_ID":"2022-166AC","EPOCH":"2025-09-21T02:49:54.267744","MEAN_MOTION":13.21824977,"ECCENTRICITY":0.00018689,"INCLINATION":87.9197,"RA_OF_ASC_NODE":297.6588,"ARG_OF_PERICENTER":86.9769,"MEAN_ANOMALY":273.1579,"EPHEMERIS_TYPE":0,"CLASSIFICATION_TYPE":"U","NORAD_CAT_ID":54668,"ELEMENT_SET_NO":999,"REV_AT_EPOCH":13589,"BSTAR":0.00036283159,"MEAN_MOTION_DOT":1.63e-6,"MEAN_MOTION_DDOT":0},{"OBJECT_NAME":"ONEWEB-0605","OBJECT_ID":"2022-166AD","EPOCH":"2025-09-21T02:40:50.168928","MEAN_MOTION":13.21828524,"ECCENTRICITY":0.00024717,"INCLINATION":87.9192,"RA_OF_ASC_NODE":297.6901,"ARG_OF_PERICENTER":85.4158,"MEAN_ANOMALY":274.7259,"EPHEMERIS_TYPE":0,"CLASSIFICATION_TYPE":"U","NORAD_CAT_ID":54669,"ELEMENT_SET_NO":999,"REV_AT_EPOCH":13596,"BSTAR":0.0002622252,"MEAN_MOTION_DOT":1.21e-6,"MEAN_MOTION_DDOT":0},{"OBJECT_NAME":"ONEWEB-0606","OBJECT_ID":"2022-166AE","EPOCH":"2025-09-21T03:12:37.423008","MEAN_MOTION":13.21825544,"ECCENTRICITY":0.00018591,"INCLINATION":87.9193,"RA_OF_ASC_NODE":297.6965,"ARG_OF_PERICENTER":99.8554,"MEAN_ANOMALY":260.279,"EPHEMERIS_TYPE":0,"CLASSIFICATION_TYPE":"U","NORAD_CAT_ID":54670,"ELEMENT_SET_NO":999,"REV_AT_EPOCH":13602,"BSTAR":0.00014585036,"MEAN_MOTION_DOT":7.3e-7,"MEAN_MOTION_DDOT":0},{"OBJECT_NAME":"ONEWEB-0607","OBJECT_ID":"2022-166AF","EPOCH":"2025-09-21T02:24:55.784160","MEAN_MOTION":13.21825114,"ECCENTRICITY":0.00018966,"INCLINATION":87.9192,"RA_OF_ASC_NODE":297.6668,"ARG_OF_PERICENTER":88.8753,"MEAN_ANOMALY":271.2598,"EPHEMERIS_TYPE":0,"CLASSIFICATION_TYPE":"U","NORAD_CAT_ID":54671,"ELEMENT_SET_NO":999,"REV_AT_EPOCH":13599,"BSTAR":4.2756655e-5,"MEAN_MOTION_DOT":3.1e-7,"MEAN_MOTION_DDOT":0},{"OBJECT_NAME":"ONEWEB-0608","OBJECT_ID":"2022-166AG","EPOCH":"2025-09-21T04:23:00.354336","MEAN_MOTION":13.21824919,"ECCENTRICITY":0.00022045,"INCLINATION":87.9188,"RA_OF_ASC_NODE":297.6341,"ARG_OF_PERICENTER":81.3317,"MEAN_ANOMALY":278.8067,"EPHEMERIS_TYPE":0,"CLASSIFICATION_TYPE":"U","NORAD_CAT_ID":54672,"ELEMENT_SET_NO":999,"REV_AT_EPOCH":13601,"BSTAR":0.00010181101,"MEAN_MOTION_DOT":5.5e-7,"MEAN_MOTION_DDOT":0},{"OBJECT_NAME":"ONEWEB-0610","OBJECT_ID":"2022-166AH","EPOCH":"2025-09-21T02:06:45.813600","MEAN_MOTION":13.21824826,"ECCENTRICITY":0.00022571,"INCLINATION":87.9195,"RA_OF_ASC_NODE":297.6904,"ARG_OF_PERICENTER":79.6659,"MEAN_ANOMALY":280.473,"EPHEMERIS_TYPE":0,"CLASSIFICATION_TYPE":"U","NORAD_CAT_ID":54673,"ELEMENT_SET_NO":999,"REV_AT_EPOCH":13590,"BSTAR":-1.9035846e-5,"MEAN_MOTION_DOT":5.0e-8,"MEAN_MOTION_DDOT":0},{"OBJECT_NAME":"ONEWEB-0611","OBJECT_ID":"2022-166AJ","EPOCH":"2025-09-21T01:57:38.637216","MEAN_MOTION":13.21822644,"ECCENTRICITY":0.00017442,"INCLINATION":87.9192,"RA_OF_ASC_NODE":297.6875,"ARG_OF_PERICENTER":100.0389,"MEAN_ANOMALY":260.0942,"EPHEMERIS_TYPE":0,"CLASSIFICATION_TYPE":"U","NORAD_CAT_ID":54674,"ELEMENT_SET_NO":999,"REV_AT_EPOCH":13589,"BSTAR":-1.4341236e-5,"MEAN_MOTION_DOT":7.0e-8,"MEAN_MOTION_DDOT":0},{"OBJECT_NAME":"ONEWEB-0612","OBJECT_ID":"2022-166AK","EPOCH":"2025-09-21T04:04:51.024864","MEAN_MOTION":13.21824501,"ECCENTRICITY":0.00020085,"INCLINATION":87.9193,"RA_OF_ASC_NODE":297.6478,"ARG_OF_PERICENTER":89.5434,"MEAN_ANOMALY":270.593,"EPHEMERIS_TYPE":0,"CLASSIFICATION_TYPE":"U","NORAD_CAT_ID":54675,"ELEMENT_SET_NO":999,"REV_AT_EPOCH":13589,"BSTAR":-2.9579519e-5,"MEAN_MOTION_DOT":1.0e-8,"MEAN_MOTION_DDOT":0},{"OBJECT_NAME":"ONEWEB-0615","OBJECT_ID":"2022-166AL","EPOCH":"2025-09-21T03:37:34.606272","MEAN_MOTION":13.21823005,"ECCENTRICITY":0.00018576,"INCLINATION":87.9195,"RA_OF_ASC_NODE":297.6785,"ARG_OF_PERICENTER":93.289,"MEAN_ANOMALY":266.8457,"EPHEMERIS_TYPE":0,"CLASSIFICATION_TYPE":"U","NORAD_CAT_ID":54676,"ELEMENT_SET_NO":999,"REV_AT_EPOCH":13590,"BSTAR":2.1007554e-5,"MEAN_MOTION_DOT":2.2e-7,"MEAN_MOTION_DDOT":0},{"OBJECT_NAME":"ONEWEB-0655","OBJECT_ID":"2022-166AM","EPOCH":"2025-09-21T02:58:59.976192","MEAN_MOTION":13.21824271,"ECCENTRICITY":0.00016824,"INCLINATION":87.9195,"RA_OF_ASC_NODE":297.6887,"ARG_OF_PERICENTER":84.8949,"MEAN_ANOMALY":275.2377,"EPHEMERIS_TYPE":0,"CLASSIFICATION_TYPE":"U","NORAD_CAT_ID":54677,"ELEMENT_SET_NO":999,"REV_AT_EPOCH":13589,"BSTAR":0.00018905873,"MEAN_MOTION_DOT":9.1e-7,"MEAN_MOTION_DDOT":0},{"OBJECT_NAME":"ONEWEB-0659","OBJECT_ID":"2022-166AN","EPOCH":"2025-09-21T03:23:57.685632","MEAN_MOTION":13.21823557,"ECCENTRICITY":0.00019718,"INCLINATION":87.9194,"RA_OF_ASC_NODE":297.6857,"ARG_OF_PERICENTER":97.6691,"MEAN_ANOMALY":262.4667,"EPHEMERIS_TYPE":0,"CLASSIFICATION_TYPE":"U","NORAD_CAT_ID":54678,"ELEMENT_SET_NO":999,"REV_AT_EPOCH":13598,"BSTAR":0.0001893853,"MEAN_MOTION_DOT":9.1e-7,"MEAN_MOTION_DDOT":0},{"OBJECT_NAME":"ONEWEB-0685","OBJECT_ID":"2022-166AP","EPOCH":"2025-09-21T03:26:13.483104","MEAN_MOTION":13.21827829,"ECCENTRICITY":0.00020226,"INCLINATION":87.9194,"RA_OF_ASC_NODE":297.6815,"ARG_OF_PERICENTER":87.1713,"MEAN_ANOMALY":272.9653,"EPHEMERIS_TYPE":0,"CLASSIFICATION_TYPE":"U","NORAD_CAT_ID":54679,"ELEMENT_SET_NO":999,"REV_AT_EPOCH":13587,"BSTAR":0.0001534154,"MEAN_MOTION_DOT":7.6e-7,"MEAN_MOTION_DDOT":0},{"OBJECT_NAME":"ONEWEB-0712","OBJECT_ID":"2022-166AQ","EPOCH":"2025-09-21T02:33:44.006976","MEAN_MOTION":13.16596003,"ECCENTRICITY":0.00013926,"INCLINATION":87.898,"RA_OF_ASC_NODE":282.3907,"ARG_OF_PERICENTER":80.1508,"MEAN_ANOMALY":279.978,"EPHEMERIS_TYPE":0,"CLASSIFICATION_TYPE":"U","NORAD_CAT_ID":54680,"ELEMENT_SET_NO":999,"REV_AT_EPOCH":13665,"BSTAR":0.00023108461,"MEAN_MOTION_DOT":1.01e-6,"MEAN_MOTION_DDOT":0},{"OBJECT_NAME":"ONEWEB-0714","OBJECT_ID":"2022-166AR","EPOCH":"2025-09-21T03:35:18.079584","MEAN_MOTION":13.21823026,"ECCENTRICITY":0.00018663,"INCLINATION":87.9196,"RA_OF_ASC_NODE":297.6738,"ARG_OF_PERICENTER":87.5963,"MEAN_ANOMALY":272.5384,"EPHEMERIS_TYPE":0,"CLASSIFICATION_TYPE":"U","NORAD_CAT_ID":54681,"ELEMENT_SET_NO":999,"REV_AT_EPOCH":13599,"BSTAR":-1.654509e-5,"MEAN_MOTION_DOT":6.0e-8,"MEAN_MOTION_DDOT":0},{"OBJECT_NAME":"ONEWEB-0532","OBJECT_ID":"2023-004A","EPOCH":"2025-09-21T03:26:26.994336","MEAN_MOTION":13.17648369,"ECCENTRICITY":0.00021456,"INCLINATION":87.9064,"RA_OF_ASC_NODE":59.3679,"ARG_OF_PERICENTER":94.0193,"MEAN_ANOMALY":266.1183,"EPHEMERIS_TYPE":0,"CLASSIFICATION_TYPE":"U","NORAD_CAT_ID":55140,"ELEMENT_SET_NO":999,"REV_AT_EPOCH":13215,"BSTAR":0.00019683062,"MEAN_MOTION_DOT":8.9e-7,"MEAN_MOTION_DDOT":0},{"OBJECT_NAME":"ONEWEB-0533","OBJECT_ID":"2023-004B","EPOCH":"2025-09-21T02:40:35.799744","MEAN_MOTION":13.12444053,"ECCENTRICITY":0.00016403,"INCLINATION":87.8918,"RA_OF_ASC_NODE":44.1188,"ARG_OF_PERICENTER":89.6138,"MEAN_ANOMALY":270.5178,"EPHEMERIS_TYPE":0,"CLASSIFICATION_TYPE":"U","NORAD_CAT_ID":55141,"ELEMENT_SET_NO":999,"REV_AT_EPOCH":13276,"BSTAR":-0.0011035906,"MEAN_MOTION_DOT":-3.84e-6,"MEAN_MOTION_DDOT":0},{"OBJECT_NAME":"ONEWEB-0541","OBJECT_ID":"2023-004C","EPOCH":"2025-09-21T05:40:05.786976","MEAN_MOTION":13.11418926,"ECCENTRICITY":0.00017469,"INCLINATION":87.8785,"RA_OF_ASC_NODE":74.6233,"ARG_OF_PERICENTER":94.9962,"MEAN_ANOMALY":265.1365,"EPHEMERIS_TYPE":0,"CLASSIFICATION_TYPE":"U","NORAD_CAT_ID":55142,"ELEMENT_SET_NO":999,"REV_AT_EPOCH":13069,"BSTAR":0.0016750315,"MEAN_MOTION_DOT":6.06e-6,"MEAN_MOTION_DDOT":0},{"OBJECT_NAME":"ONEWEB-0543","OBJECT_ID":"2023-004D","EPOCH":"2025-09-21T06:10:48.374112","MEAN_MOTION":13.18685583,"ECCENTRICITY":0.000145,"INCLINATION":87.9187,"RA_OF_ASC_NODE":28.911,"ARG_OF_PERICENTER":95.6769,"MEAN_ANOMALY":264.4528,"EPHEMERIS_TYPE":0,"CLASSIFICATION_TYPE":"U","NORAD_CAT_ID":55143,"ELEMENT_SET_NO":999,"REV_AT_EPOCH":13425,"BSTAR":8.763332e-6,"MEAN_MOTION_DOT":1.6e-7,"MEAN_MOTION_DDOT":0},{"OBJECT_NAME":"ONEWEB-0544","OBJECT_ID":"2023-004E","EPOCH":"2025-09-21T02:22:45.638976","MEAN_MOTION":13.18684035,"ECCENTRICITY":0.00015388,"INCLINATION":87.9186,"RA_OF_ASC_NODE":28.9324,"ARG_OF_PERICENTER":103.3761,"MEAN_ANOMALY":256.7543,"EPHEMERIS_TYPE":0,"CLASSIFICATION_TYPE":"U","NORAD_CAT_ID":55144,"ELEMENT_SET_NO":999,"REV_AT_EPOCH":13423,"BSTAR":5.448522e-6,"MEAN_MOTION_DOT":1.5e-7,"MEAN_MOTION_DDOT":0},{"OBJECT_NAME":"ONEWEB-0560","OBJECT_ID":"2023-004F","EPOCH":"2025-09-21T02:13:15.833568","MEAN_MOTION":13.1868356,"ECCENTRICITY":0.00015521,"INCLINATION":87.9195,"RA_OF_ASC_NODE":28.9128,"ARG_OF_PERICENTER":106.9839,"MEAN_ANOMALY":253.1463,"EPHEMERIS_TYPE":0,"CLASSIFICATION_TYPE":"U","NORAD_CAT_ID":55145,"ELEMENT_SET_NO":999,"REV_AT_EPOCH":13424,"BSTAR":-0.00010024253,"MEAN_MOTION_DOT":-2.7e-7,"MEAN_MOTION_DDOT":0},{"OBJECT_NAME":"ONEWEB-0565","OBJECT_ID":"2023-004G","EPOCH":"2025-09-21T02:03:46.125792","MEAN_MOTION":13.18686185,"ECCENTRICITY":0.00020249,"INCLINATION":87.9187,"RA_OF_ASC_NODE":28.968,"ARG_OF_PERICENTER":113.2951,"MEAN_ANOMALY":246.8394,"EPHEMERIS_TYPE":0,"CLASSIFICATION_TYPE":"U","NORAD_CAT_ID":55146,"ELEMENT_SET_NO":999,"REV_AT_EPOCH":13423,"BSTAR":0.0002637425,"MEAN_MOTION_DOT":1.17e-6,"MEAN_MOTION_DDOT":0}]
